{"type": "FeatureCollection", "features": [ {"type": "Feature", "properties": {"norad_id": 34784, "name": "COSMOS 2251 DEB", "group": "cosmos-2251-debris", "lat": -11.155919395884863, "lon": -40.0875124558001, "alt_km": 722.751993040958, "timestamp": "2025-12-13T08:49:16.086759+00:00", "meta": {"OBJECT_NAME": "COSMOS 2251 DEB", "OBJECT_ID": "1993-036AAM", "EPOCH": "2025-12-12T16:26:17.481984", "MEAN_MOTION": 14.60779398, "ECCENTRICITY": 0.00494088, "INCLINATION": 74.0074, "RA_OF_ASC_NODE": 324.4607, "ARG_OF_PERICENTER": 133.8124, "MEAN_ANOMALY": 226.7144, "EPHEMERIS_TYPE": 0, "CLASSIFICATION_TYPE": "U", "NORAD_CAT_ID": 34784, "ELEMENT_SET_NO": 999, "REV_AT_EPOCH": 88534, "BSTAR": 0.00075874153, "MEAN_MOTION_DOT": 3.739e-05, "MEAN_MOTION_DDOT": 0}, "tle": {"line1": "1 34784U 93036AAM 25346.68492456  .00003739  00000+0  75874-3 0  9996", "line2": "2 34784  74.0074 324.4607 0049408 133.8124 226.7144 14.60779398885341"}}, "geometry": {"type": "Point", "coordinates": [-40.0875124558001, -11.155919395884863]}}, {"type": "Feature", "properties": {"norad_id": 34790, "name": "COSMOS 2251 DEB", "group": "cosmos-2251-debris", "lat": 32.97435263870748, "lon": -106.73493184156861, "alt_km": 807.2704336384459, "timestamp": "2025-12-13T08:49:16.086769+00:00", "meta": {"OBJECT_NAME": "COSMOS 2251 DEB", "OBJECT_ID": "1993-036AAT", "EPOCH": "2025-12-12T04:44:34.895904", "MEAN_MOTION": 14.2462878, "ECCENTRICITY": 0.01007462, "INCLINATION": 74.0522, "RA_OF_ASC_NODE": 244.6799, "ARG_OF_PERICENTER": 306.4348, "MEAN_ANOMALY": 209.2227, "EPHEMERIS_TYPE": 0, "CLASSIFICATION_TYPE": "U", "NORAD_CAT_ID": 34790, "ELEMENT_SET_NO": 999, "REV_AT_EPOCH": 86565, "BSTAR": 0.0010742752, "MEAN_MOTION_DOT": 2.606e-05, "MEAN_MOTION_DDOT": 0}, "tle": {"line1": "1 34790U 93036AAT 25346.19762611  .00002606  00000+0  10743-2 0  9997", "line2": "2 34790  74.0522 244.6799 0100746 306.4348 209.2227 14.24628780865658"}}, "geometry": {"type": "Point", "coordinates": [-106.73493184156861, 32.97435263870748]}}, {"type": "Feature", "properties": {"norad_id": 34792, "name": "COSMOS 2251 DEB", "group": "cosmos-2251-debris", "lat": 49.60657340816437, "lon": -171.7982428646004, "alt_km": 709.0228122208127, "timestamp": "2025-12-13T08:49:16.086779+00:00", "meta": {"OBJECT_NAME": "COSMOS 2251 DEB", "OBJECT_ID": "1993-036AAV", "EPOCH": "2025-12-12T23:23:14.235648", "MEAN_MOTION": 14.5595785, "ECCENTRICITY": 0.00124748, "INCLINATION": 74.0176, "RA_OF_ASC_NODE": 169.2634, "ARG_OF_PERICENTER": 263.3603, "MEAN_ANOMALY": 249.5785, "EPHEMERIS_TYPE": 0, "CLASSIFICATION_TYPE": "U", "NORAD_CAT_ID": 34792, "ELEMENT_SET_NO": 999, "REV_AT_EPOCH": 87653, "BSTAR": 0.0014854213, "MEAN_MOTION_DOT": 6.514e-05, "MEAN_MOTION_DDOT": 0}, "tle": {"line1": "1 34792U 93036AAV 25346.97447032  .00006514  00000+0  14854-2 0  9991", "line2": "2 34792  74.0176 169.2634 0012474 263.3603 249.5785 14.55957850876532"}}, "geometry": {"type": "Point", "coordinates": [-171.7982428646004, 49.60657340816437]}}, {"type": "Feature", "properties": {"norad_id": 34793, "name": "COSMOS 2251 DEB", "group": "cosmos-2251-debris", "lat": 26.28268293470221, "lon": 61.06256272818968, "alt_km": 773.3811226360594, "timestamp": "2025-12-13T08:49:16.086816+00:00", "meta": {"OBJECT_NAME": "COSMOS 2251 DEB", "OBJECT_ID": "1993-036AAW", "EPOCH": "2025-12-12T20:58:46.710336", "MEAN_MOTION": 14.38645146, "ECCENTRICITY": 0.00503099, "INCLINATION": 74.0028, "RA_OF_ASC_NODE": 250.1186, "ARG_OF_PERICENTER": 44.2076, "MEAN_ANOMALY": 73.3907, "EPHEMERIS_TYPE": 0, "CLASSIFICATION_TYPE": "U", "NORAD_CAT_ID": 34793, "ELEMENT_SET_NO": 999, "REV_AT_EPOCH": 87332, "BSTAR": 0.00039546092, "MEAN_MOTION_DOT": 1.204e-05, "MEAN_MOTION_DDOT": 0}, "tle": {"line1": "1 34793U 93036AAW 25346.87415174  .00001204  00000+0  39546-3 0  9990", "line2": "2 34793  74.0028 250.1186 0050309  44.2076  73.3907 14.38645146873326"}}, "geometry": {"type": "Point", "coordinates": [61.06256272818968, 26.28268293470221]}}, {"type": "Feature", "properties": {"norad_id": 34796, "name": "COSMOS 2251 DEB", "group": "cosmos-2251-debris", "lat": -73.87087028586036, "lon": 117.17619095058862, "alt_km": 689.9653465883075, "timestamp": "2025-12-13T08:49:16.086838+00:00", "meta": {"OBJECT_NAME": "COSMOS 2251 DEB", "OBJECT_ID": "1993-036AAZ", "EPOCH": "2025-12-12T16:55:38.109216", "MEAN_MOTION": 14.48690543, "ECCENTRICITY": 0.01002657, "INCLINATION": 74.0294, "RA_OF_ASC_NODE": 216.4092, "ARG_OF_PERICENTER": 318.4646, "MEAN_ANOMALY": 97.7845, "EPHEMERIS_TYPE": 0, "CLASSIFICATION_TYPE": "U", "NORAD_CAT_ID": 34796, "ELEMENT_SET_NO": 999, "REV_AT_EPOCH": 88027, "BSTAR": 0.00097174717, "MEAN_MOTION_DOT": 3.874e-05, "MEAN_MOTION_DDOT": 0}, "tle": {"line1": "1 34796U 93036AAZ 25346.70530219  .00003874  00000+0  97175-3 0  9990", "line2": "2 34796  74.0294 216.4092 0100265 318.4646  97.7845 14.48690543880276"}}, "geometry": {"type": "Point", "coordinates": [117.17619095058862, -73.87087028586036]}}, {"type": "Feature", "properties": {"norad_id": 34797, "name": "COSMOS 2251 DEB", "group": "cosmos-2251-debris", "lat": 17.616508060985552, "lon": 104.05406416357351, "alt_km": 799.2466199627152, "timestamp": "2025-12-13T08:49:16.086850+00:00", "meta": {"OBJECT_NAME": "COSMOS 2251 DEB", "OBJECT_ID": "1993-036ABA", "EPOCH": "2025-12-08T02:15:30.483648", "MEAN_MOTION": 14.42690241, "ECCENTRICITY": 0.00721111, "INCLINATION": 73.9779, "RA_OF_ASC_NODE": 108.638, "ARG_OF_PERICENTER": 222.8023, "MEAN_ANOMALY": 136.7506, "EPHEMERIS_TYPE": 0, "CLASSIFICATION_TYPE": "U", "NORAD_CAT_ID": 34797, "ELEMENT_SET_NO": 999, "REV_AT_EPOCH": 87348, "BSTAR": 0.0033221371, "MEAN_MOTION_DOT": 0.00011397, "MEAN_MOTION_DDOT": 0}, "tle": {"line1": "1 34797U 93036ABA 25342.09410282  .00011397  00000+0  33221-2 0  9996", "line2": "2 34797  73.9779 108.6380 0072111 222.8023 136.7506 14.42690241873482"}}, "geometry": {"type": "Point", "coordinates": [104.05406416357351, 17.616508060985552]}}, {"type": "Feature", "properties": {"norad_id": 34814, "name": "COSMOS 2251 DEB", "group": "cosmos-2251-debris", "lat": -10.70798067010964, "lon": -38.85708291981513, "alt_km": 801.1145010277805, "timestamp": "2025-12-13T08:49:16.086861+00:00", "meta": {"OBJECT_NAME": "COSMOS 2251 DEB", "OBJECT_ID": "1993-036ABD", "EPOCH": "2025-12-12T08:07:58.255680", "MEAN_MOTION": 14.36891945, "ECCENTRICITY": 0.00562386, "INCLINATION": 73.896, "RA_OF_ASC_NODE": 326.1812, "ARG_OF_PERICENTER": 215.7682, "MEAN_ANOMALY": 213.6863, "EPHEMERIS_TYPE": 0, "CLASSIFICATION_TYPE": "U", "NORAD_CAT_ID": 34814, "ELEMENT_SET_NO": 999, "REV_AT_EPOCH": 87327, "BSTAR": 0.0012426076, "MEAN_MOTION_DOT": 3.717e-05, "MEAN_MOTION_DDOT": 0}, "tle": {"line1": "1 34814U 93036ABD 25346.33886870  .00003717  00000+0  12426-2 0  9998", "line2": "2 34814  73.8960 326.1812 0056238 215.7682 213.6863 14.36891945873279"}}, "geometry": {"type": "Point", "coordinates": [-38.85708291981513, -10.70798067010964]}}, {"type": "Feature", "properties": {"norad_id": 34815, "name": "COSMOS 2251 DEB", "group": "cosmos-2251-debris", "lat": -53.60770389058683, "lon": 83.40805022589866, "alt_km": 628.7615788103321, "timestamp": "2025-12-13T08:49:16.086872+00:00", "meta": {"OBJECT_NAME": "COSMOS 2251 DEB", "OBJECT_ID": "1993-036ABE", "EPOCH": "2025-12-12T18:45:18.245952", "MEAN_MOTION": 14.7831495, "ECCENTRICITY": 0.00588665, "INCLINATION": 74.0447, "RA_OF_ASC_NODE": 241.7185, "ARG_OF_PERICENTER": 310.7762, "MEAN_ANOMALY": 48.8313, "EPHEMERIS_TYPE": 0, "CLASSIFICATION_TYPE": "U", "NORAD_CAT_ID": 34815, "ELEMENT_SET_NO": 999, "REV_AT_EPOCH": 88628, "BSTAR": 0.0012841437, "MEAN_MOTION_DOT": 9.588e-05, "MEAN_MOTION_DDOT": 0}, "tle": {"line1": "1 34815U 93036ABE 25346.78146118  .00009588  00000+0  12841-2 0  9995", "line2": "2 34815  74.0447 241.7185 0058866 310.7762  48.8313 14.78314950886287"}}, "geometry": {"type": "Point", "coordinates": [83.40805022589866, -53.60770389058683]}}, {"type": "Feature", "properties": {"norad_id": 34816, "name": "COSMOS 2251 DEB", "group": "cosmos-2251-debris", "lat": -69.9478267077761, "lon": 89.7290058439592, "alt_km": 970.4773532039771, "timestamp": "2025-12-13T08:49:16.086882+00:00", "meta": {"OBJECT_NAME": "COSMOS 2251 DEB", "OBJECT_ID": "1993-036ABF", "EPOCH": "2025-12-12T03:45:47.255616", "MEAN_MOTION": 13.58319359, "ECCENTRICITY": 0.03734567, "INCLINATION": 73.8863, "RA_OF_ASC_NODE": 144.0733, "ARG_OF_PERICENTER": 208.6345, "MEAN_ANOMALY": 271.0321, "EPHEMERIS_TYPE": 0, "CLASSIFICATION_TYPE": "U", "NORAD_CAT_ID": 34816, "ELEMENT_SET_NO": 999, "REV_AT_EPOCH": 82775, "BSTAR": 0.0017839318, "MEAN_MOTION_DOT": 2.021e-05, "MEAN_MOTION_DDOT": 0}, "tle": {"line1": "1 34816U 93036ABF 25346.15679694  .00002021  00000+0  17839-2 0  9994", "line2": "2 34816  73.8863 144.0733 0373456 208.6345 271.0321 13.58319359827759"}}, "geometry": {"type": "Point", "coordinates": [89.7290058439592, -69.9478267077761]}}, {"type": "Feature", "properties": {"norad_id": 34818, "name": "COSMOS 2251 DEB", "group": "cosmos-2251-debris", "lat": 56.72430579883391, "lon": -38.35479415658004, "alt_km": 751.4015810737401, "timestamp": "2025-12-13T08:49:16.086893+00:00", "meta": {"OBJECT_NAME": "COSMOS 2251 DEB", "OBJECT_ID": "1993-036ABH", "EPOCH": "2025-12-12T20:59:23.459712", "MEAN_MOTION": 14.3696738, "ECCENTRICITY": 0.00241877, "INCLINATION": 74.0359, "RA_OF_ASC_NODE": 296.6908, "ARG_OF_PERICENTER": 12.3726, "MEAN_ANOMALY": 18.7344, "EPHEMERIS_TYPE": 0, "CLASSIFICATION_TYPE": "U", "NORAD_CAT_ID": 34818, "ELEMENT_SET_NO": 999, "REV_AT_EPOCH": 87372, "BSTAR": 0.00034395674, "MEAN_MOTION_DOT": 9.96e-06, "MEAN_MOTION_DDOT": 0}, "tle": {"line1": "1 34818U 93036ABH 25346.87457708  .00000996  00000+0  34396-3 0  9992", "line2": "2 34818  74.0359 296.6908 0024187  12.3726  18.7344 14.36967380873728"}}, "geometry": {"type": "Point", "coordinates": [-38.35479415658004, 56.72430579883391]}}]}